[{"OBJECT_NAME":"ONEWEB-0318","OBJECT_ID":"2021-075AF","EPOCH":"2025-10-12T06:24:31.876704","MEAN_MOTION":13.18683417,"ECCENTRICITY":0.00017741,"INCLINATION":87.9233,"RA_OF_ASC_NODE":24.6874,"ARG_OF_PERICENTER":93.7335,"MEAN_ANOMALY":266.4,"EPHEMERIS_TYPE":0,"CLASSIFICATION_TYPE":"U","NORAD_CAT_ID":49104,"ELEMENT_SET_NO":999,"REV_AT_EPOCH":20449,"BSTAR":-6.0836664e-5,"MEAN_MOTION_DOT":-1.1e-7,"MEAN_MOTION_DDOT":0},{"OBJECT_NAME":"ONEWEB-0319","OBJECT_ID":"2021-075AG","EPOCH":"2025-10-12T07:37:33.261312","MEAN_MOTION":13.17647784,"ECCENTRICITY":0.00017702,"INCLINATION":87.9092,"RA_OF_ASC_NODE":55.1675,"ARG_OF_PERICENTER":83.485,"MEAN_ANOMALY":276.6483,"EPHEMERIS_TYPE":0,"CLASSIFICATION_TYPE":"U","NORAD_CAT_ID":49105,"ELEMENT_SET_NO":999,"REV_AT_EPOCH":20096,"BSTAR":-0.00013541828,"MEAN_MOTION_DOT":-4.0e-7,"MEAN_MOTION_DDOT":0},{"OBJECT_NAME":"ONEWEB-0323","OBJECT_ID":"2021-075AH","EPOCH":"2025-10-12T06:28:40.654272","MEAN_MOTION":13.12443351,"ECCENTRICITY":0.00018978,"INCLINATION":87.8955,"RA_OF_ASC_NODE":39.8924,"ARG_OF_PERICENTER":78.3755,"MEAN_ANOMALY":281.7586,"EPHEMERIS_TYPE":0,"CLASSIFICATION_TYPE":"U","NORAD_CAT_ID":49106,"ELEMENT_SET_NO":999,"REV_AT_EPOCH":20203,"BSTAR":-0.00083247354,"MEAN_MOTION_DOT":-2.87e-6,"MEAN_MOTION_DDOT":0},{"OBJECT_NAME":"ONEWEB-0329","OBJECT_ID":"2021-075AJ","EPOCH":"2025-10-12T07:49:42.206880","MEAN_MOTION":13.1765068,"ECCENTRICITY":0.00018303,"INCLINATION":87.9087,"RA_OF_ASC_NODE":55.1689,"ARG_OF_PERICENTER":94.1074,"MEAN_ANOMALY":266.0266,"EPHEMERIS_TYPE":0,"CLASSIFICATION_TYPE":"U","NORAD_CAT_ID":49107,"ELEMENT_SET_NO":999,"REV_AT_EPOCH":20094,"BSTAR":7.8310968e-5,"MEAN_MOTION_DOT":4.3e-7,"MEAN_MOTION_DDOT":0},{"OBJECT_NAME":"ONEWEB-0330","OBJECT_ID":"2021-075AK","EPOCH":"2025-10-12T07:50:54.689568","MEAN_MOTION":13.176509,"ECCENTRICITY":0.00019492,"INCLINATION":87.9093,"RA_OF_ASC_NODE":55.1734,"ARG_OF_PERICENTER":96.993,"MEAN_ANOMALY":263.1423,"EPHEMERIS_TYPE":0,"CLASSIFICATION_TYPE":"U","NORAD_CAT_ID":49108,"ELEMENT_SET_NO":999,"REV_AT_EPOCH":20098,"BSTAR":0.00017558467,"MEAN_MOTION_DOT":8.1e-7,"MEAN_MOTION_DDOT":0},{"OBJECT_NAME":"ONEWEB-0292","OBJECT_ID":"2021-083A","EPOCH":"2025-10-12T06:48:28.677600","MEAN_MOTION":13.1347157,"ECCENTRICITY":0.00017372,"INCLINATION":87.9045,"RA_OF_ASC_NODE":9.5261,"ARG_OF_PERICENTER":95.2699,"MEAN_ANOMALY":264.8629,"EPHEMERIS_TYPE":0,"CLASSIFICATION_TYPE":"U","NORAD_CAT_ID":49186,"ELEMENT_SET_NO":999,"REV_AT_EPOCH":19838,"BSTAR":-1.5453206e-5,"MEAN_MOTION_DOT":7.0e-8,"MEAN_MOTION_DDOT":0},{"OBJECT_NAME":"ONEWEB-0303","OBJECT_ID":"2021-083B","EPOCH":"2025-10-12T06:19:47.342496","MEAN_MOTION":13.18687074,"ECCENTRICITY":0.00017502,"INCLINATION":87.9232,"RA_OF_ASC_NODE":24.6884,"ARG_OF_PERICENTER":93.6991,"MEAN_ANOMALY":266.4341,"EPHEMERIS_TYPE":0,"CLASSIFICATION_TYPE":"U","NORAD_CAT_ID":49187,"ELEMENT_SET_NO":999,"REV_AT_EPOCH":19730,"BSTAR":0.00014407517,"MEAN_MOTION_DOT":7.0e-7,"MEAN_MOTION_DDOT":0},{"OBJECT_NAME":"ONEWEB-0306","OBJECT_ID":"2021-083C","EPOCH":"2025-10-12T07:54:48.059424","MEAN_MOTION":13.18687397,"ECCENTRICITY":0.00018703,"INCLINATION":87.9228,"RA_OF_ASC_NODE":24.6608,"ARG_OF_PERICENTER":107.1659,"MEAN_ANOMALY":252.9678,"EPHEMERIS_TYPE":0,"CLASSIFICATION_TYPE":"U","NORAD_CAT_ID":49188,"ELEMENT_SET_NO":999,"REV_AT_EPOCH":19735,"BSTAR":-0.00011317854,"MEAN_MOTION_DOT":-3.2e-7,"MEAN_MOTION_DDOT":0},{"OBJECT_NAME":"ONEWEB-0307","OBJECT_ID":"2021-083D","EPOCH":"2025-10-12T06:39:55.493568","MEAN_MOTION":13.13468213,"ECCENTRICITY":0.00017556,"INCLINATION":87.9035,"RA_OF_ASC_NODE":9.5221,"ARG_OF_PERICENTER":101.5363,"MEAN_ANOMALY":258.5963,"EPHEMERIS_TYPE":0,"CLASSIFICATION_TYPE":"U","NORAD_CAT_ID":49189,"ELEMENT_SET_NO":999,"REV_AT_EPOCH":19838,"BSTAR":-0.00043121564,"MEAN_MOTION_DOT":-1.45e-6,"MEAN_MOTION_DDOT":0},{"OBJECT_NAME":"ONEWEB-0320","OBJECT_ID":"2021-083E","EPOCH":"2025-10-12T08:04:23.320128","MEAN_MOTION":13.18678013,"ECCENTRICITY":0.0001631,"INCLINATION":87.9231,"RA_OF_ASC_NODE":24.688,"ARG_OF_PERICENTER":101.162,"MEAN_ANOMALY":258.9695,"EPHEMERIS_TYPE":0,"CLASSIFICATION_TYPE":"U","NORAD_CAT_ID":49190,"ELEMENT_SET_NO":999,"REV_AT_EPOCH":19731,"BSTAR":0.0027187977,"MEAN_MOTION_DOT":1.085e-5,"MEAN_MOTION_DDOT":0},{"OBJECT_NAME":"ONEWEB-0321","OBJECT_ID":"2021-083F","EPOCH":"2025-10-12T04:09:23.974560","MEAN_MOTION":13.2077073,"ECCENTRICITY":0.00020428,"INCLINATION":87.9227,"RA_OF_ASC_NODE":323.8929,"ARG_OF_PERICENTER":105.1013,"MEAN_ANOMALY":255.0346,"EPHEMERIS_TYPE":0,"CLASSIFICATION_TYPE":"U","NORAD_CAT_ID":49191,"ELEMENT_SET_NO":999,"REV_AT_EPOCH":20409,"BSTAR":-4.8751834e-5,"MEAN_MOTION_DOT":-7.0e-8,"MEAN_MOTION_DDOT":0},{"OBJECT_NAME":"ONEWEB-0322","OBJECT_ID":"2021-083G","EPOCH":"2025-10-12T06:33:51.463584","MEAN_MOTION":13.13471012,"ECCENTRICITY":0.00018013,"INCLINATION":87.9042,"RA_OF_ASC_NODE":9.5224,"ARG_OF_PERICENTER":117.9732,"MEAN_ANOMALY":242.1579,"EPHEMERIS_TYPE":0,"CLASSIFICATION_TYPE":"U","NORAD_CAT_ID":49192,"ELEMENT_SET_NO":999,"REV_AT_EPOCH":19837,"BSTAR":-0.00064414414,"MEAN_MOTION_DOT":-2.22e-6,"MEAN_MOTION_DDOT":0},{"OBJECT_NAME":"ONEWEB-0324","OBJECT_ID":"2021-083H","EPOCH":"2025-10-12T07:45:16.951968","MEAN_MOTION":13.18683432,"ECCENTRICITY":0.00019222,"INCLINATION":87.923,"RA_OF_ASC_NODE":24.6697,"ARG_OF_PERICENTER":99.4611,"MEAN_ANOMALY":260.6739,"EPHEMERIS_TYPE":0,"CLASSIFICATION_TYPE":"U","NORAD_CAT_ID":49193,"ELEMENT_SET_NO":999,"REV_AT_EPOCH":19733,"BSTAR":9.558104e-6,"MEAN_MOTION_DOT":1.7e-7,"MEAN_MOTION_DDOT":0},{"OBJECT_NAME":"ONEWEB-0325","OBJECT_ID":"2021-083J","EPOCH":"2025-10-12T07:50:03.517440","MEAN_MOTION":13.1868606,"ECCENTRICITY":0.0001709,"INCLINATION":87.9233,"RA_OF_ASC_NODE":24.6871,"ARG_OF_PERICENTER":102.847,"MEAN_ANOMALY":257.2853,"EPHEMERIS_TYPE":0,"CLASSIFICATION_TYPE":"U","NORAD_CAT_ID":49194,"ELEMENT_SET_NO":999,"REV_AT_EPOCH":19734,"BSTAR":-2.4376471e-5,"MEAN_MOTION_DOT":3.0e-8,"MEAN_MOTION_DDOT":0},{"OBJECT_NAME":"ONEWEB-0326","OBJECT_ID":"2021-083K","EPOCH":"2025-10-12T06:22:20.329248","MEAN_MOTION":13.18688294,"ECCENTRICITY":0.00016308,"INCLINATION":87.923,"RA_OF_ASC_NODE":24.6867,"ARG_OF_PERICENTER":90.4833,"MEAN_ANOMALY":269.6486,"EPHEMERIS_TYPE":0,"CLASSIFICATION_TYPE":"U","NORAD_CAT_ID":49195,"ELEMENT_SET_NO":999,"REV_AT_EPOCH":19732,"BSTAR":-4.633799e-5,"MEAN_MOTION_DOT":-5.0e-8,"MEAN_MOTION_DDOT":0},{"OBJECT_NAME":"ONEWEB-0327","OBJECT_ID":"2021-083L","EPOCH":"2025-10-12T06:21:58.429440","MEAN_MOTION":13.1868649,"ECCENTRICITY":0.00015039,"INCLINATION":87.922,"RA_OF_ASC_NODE":24.711,"ARG_OF_PERICENTER":90.4838,"MEAN_ANOMALY":269.6466,"EPHEMERIS_TYPE":0,"CLASSIFICATION_TYPE":"U","NORAD_CAT_ID":49196,"ELEMENT_SET_NO":999,"REV_AT_EPOCH":19734,"BSTAR":8.0899297e-5,"MEAN_MOTION_DOT":4.5e-7,"MEAN_MOTION_DDOT":0},{"OBJECT_NAME":"ONEWEB-0328","OBJECT_ID":"2021-083M","EPOCH":"2025-10-12T06:19:12.944064","MEAN_MOTION":13.1347051,"ECCENTRICITY":0.00019617,"INCLINATION":87.9053,"RA_OF_ASC_NODE":9.4642,"ARG_OF_PERICENTER":99.6028,"MEAN_ANOMALY":260.5323,"EPHEMERIS_TYPE":0,"CLASSIFICATION_TYPE":"U","NORAD_CAT_ID":49197,"ELEMENT_SET_NO":999,"REV_AT_EPOCH":19835,"BSTAR":-0.00078360693,"MEAN_MOTION_DOT":-2.73e-6,"MEAN_MOTION_DDOT":0}]
