ONEWEB-0318             
1 49104U 21075AF  25285.26703561 -.00000011  00000+0 -60837-4 0  9996
2 49104  87.9233  24.6874 0001774  93.7335 266.4000 13.18683417204491
ONEWEB-0319             
1 49105U 21075AG  25285.31774608 -.00000040  00000+0 -13542-3 0  9995
2 49105  87.9092  55.1675 0001770  83.4850 276.6483 13.17647784200969
ONEWEB-0323             
1 49106U 21075AH  25285.26991498 -.00000287  00000+0 -83247-3 0  9990
2 49106  87.8955  39.8924 0001897  78.3755 281.7586 13.12443351202030
ONEWEB-0329             
1 49107U 21075AJ  25285.32618295  .00000043  00000+0  78311-4 0  9994
2 49107  87.9087  55.1689 0001830  94.1074 266.0266 13.17650680200943
ONEWEB-0330             
1 49108U 21075AK  25285.32702187  .00000081  00000+0  17558-3 0  9996
2 49108  87.9093  55.1734 0001949  96.9930 263.1423 13.17650900200986
ONEWEB-0292             
1 49186U 21083A   25285.28366525  .00000007  00000+0 -15453-4 0  9990
2 49186  87.9045   9.5261 0001737  95.2699 264.8629 13.13471570198382
ONEWEB-0303             
1 49187U 21083B   25285.26374239  .00000070  00000+0  14408-3 0  9997
2 49187  87.9232  24.6884 0001750  93.6991 266.4341 13.18687074197305
ONEWEB-0306             
1 49188U 21083C   25285.32972291 -.00000032  00000+0 -11318-3 0  9994
2 49188  87.9228  24.6608 0001870 107.1659 252.9678 13.18687397197356
ONEWEB-0307             
1 49189U 21083D   25285.27772562 -.00000145  00000+0 -43122-3 0  9991
2 49189  87.9035   9.5221 0001755 101.5363 258.5963 13.13468213198380
ONEWEB-0320             
1 49190U 21083E   25285.33638102  .00001085  00000+0  27188-2 0  9996
2 49190  87.9231  24.6880 0001631 101.1620 258.9695 13.18678013197318
ONEWEB-0321             
1 49191U 21083F   25285.17319415 -.00000007  00000+0 -48752-4 0  9999
2 49191  87.9227 323.8929 0002042 105.1013 255.0346 13.20770730204096
ONEWEB-0322             
1 49192U 21083G   25285.27351231 -.00000222  00000+0 -64414-3 0  9994
2 49192  87.9042   9.5224 0001801 117.9732 242.1579 13.13471012198370
ONEWEB-0324             
1 49193U 21083H   25285.32311287  .00000017  00000+0  95581-5 0  9999
2 49193  87.9230  24.6697 0001922  99.4611 260.6739 13.18683432197330
ONEWEB-0325             
1 49194U 21083J   25285.32642960  .00000003  00000+0 -24376-4 0  9994
2 49194  87.9233  24.6871 0001709 102.8470 257.2853 13.18686060197343
ONEWEB-0326             
1 49195U 21083K   25285.26551307 -.00000005  00000+0 -46338-4 0  9997
2 49195  87.9230  24.6867 0001630  90.4833 269.6486 13.18688294197322
ONEWEB-0327             
1 49196U 21083L   25285.26525960  .00000045  00000+0  80899-4 0  9996
2 49196  87.9220  24.7110 0001503  90.4838 269.6466 13.18686490197344
ONEWEB-0328             
1 49197U 21083M   25285.26334426 -.00000273  00000+0 -78361-3 0  9997
2 49197  87.9053   9.4642 0001961  99.6028 260.5323 13.13470510198352
